[{"OBJECT_NAME":"STARLINK-35908","OBJECT_ID":"2025-271Y","EPOCH":"2026-03-09T09:58:13.152000","MEAN_MOTION":15.30194279,"ECCENTRICITY":0.00021252,"INCLINATION":53.1576,"RA_OF_ASC_NODE":141.2786,"ARG_OF_PERICENTER":151.2114,"MEAN_ANOMALY":208.9004,"EPHEMERIS_TYPE":0,"CLASSIFICATION_TYPE":"U","NORAD_CAT_ID":66639,"ELEMENT_SET_NO":999,"REV_AT_EPOCH":1752,"BSTAR":0.0011414468,"MEAN_MOTION_DOT":0.00033595,"MEAN_MOTION_DDOT":0},{"OBJECT_NAME":"TITAN 4B R\/B","OBJECT_ID":"2005-016B","EPOCH":"2026-03-09T20:27:57.848832","MEAN_MOTION":15.42682045,"ECCENTRICITY":0.00616552,"INCLINATION":56.9964,"RA_OF_ASC_NODE":245.9411,"ARG_OF_PERICENTER":20.2929,"MEAN_ANOMALY":340.0555,"EPHEMERIS_TYPE":0,"CLASSIFICATION_TYPE":"U","NORAD_CAT_ID":28647,"ELEMENT_SET_NO":999,"REV_AT_EPOCH":37707,"BSTAR":0.00046483736,"MEAN_MOTION_DOT":0.0002164,"MEAN_MOTION_DDOT":0}]
